CCSDS_OMM_VERS = 2.0
CREATION_DATE  = 
ORIGINATOR     = 

OBJECT_NAME    = STARLINK-35955
OBJECT_ID      = 2025-271U
CENTER_NAME    = EARTH
REF_FRAME      = TEME
TIME_SYSTEM    = UTC
MEAN_ELEMENT_THEORY = SGP/SGP4

EPOCH          = 2025-12-03T22:00:03.000096
MEAN_MOTION    = 15.82564749
ECCENTRICITY   = .00006095
INCLINATION    = 53.1560
RA_OF_ASC_NODE = 230.5156
ARG_OF_PERICENTER = 78.5294
MEAN_ANOMALY   = 265.2125

EPHEMERIS_TYPE = 0
CLASSIFICATION_TYPE = U
NORAD_CAT_ID   = 66635
ELEMENT_SET_NO = 999
REV_AT_EPOCH   = 282
BSTAR          = -.90006665E-2
MEAN_MOTION_DOT = -.1670516E-1
MEAN_MOTION_DDOT = 0

CCSDS_OMM_VERS = 2.0
CREATION_DATE  = 
ORIGINATOR     = 

OBJECT_NAME    = STARLINK-35968
OBJECT_ID      = 2025-271V
CENTER_NAME    = EARTH
REF_FRAME      = TEME
TIME_SYSTEM    = UTC
MEAN_ELEMENT_THEORY = SGP/SGP4

EPOCH          = 2025-12-04T04:07:31.320192
MEAN_MOTION    = 15.82318773
ECCENTRICITY   = .0004627
INCLINATION    = 53.1560
RA_OF_ASC_NODE = 229.2300
ARG_OF_PERICENTER = 358.4945
MEAN_ANOMALY   = 1.6064

EPHEMERIS_TYPE = 0
CLASSIFICATION_TYPE = U
NORAD_CAT_ID   = 66636
ELEMENT_SET_NO = 999
REV_AT_EPOCH   = 286
BSTAR          = .11527E-3
MEAN_MOTION_DOT = .23692E-3
MEAN_MOTION_DDOT = 0

CCSDS_OMM_VERS = 2.0
CREATION_DATE  = 
ORIGINATOR     = 

OBJECT_NAME    = STARLINK-35953
OBJECT_ID      = 2025-271W
CENTER_NAME    = EARTH
REF_FRAME      = TEME
TIME_SYSTEM    = UTC
MEAN_ELEMENT_THEORY = SGP/SGP4

EPOCH          = 2025-12-04T04:06:56.000736
MEAN_MOTION    = 15.82192647
ECCENTRICITY   = .0002078
INCLINATION    = 53.1563
RA_OF_ASC_NODE = 229.2272
ARG_OF_PERICENTER = 316.5202
MEAN_ANOMALY   = 43.5657

EPHEMERIS_TYPE = 0
CLASSIFICATION_TYPE = U
NORAD_CAT_ID   = 66637
ELEMENT_SET_NO = 999
REV_AT_EPOCH   = 286
BSTAR          = .12703E-2
MEAN_MOTION_DOT = .274449E-2
MEAN_MOTION_DDOT = 0

CCSDS_OMM_VERS = 2.0
CREATION_DATE  = 
ORIGINATOR     = 

OBJECT_NAME    = STARLINK-35972
OBJECT_ID      = 2025-271X
CENTER_NAME    = EARTH
REF_FRAME      = TEME
TIME_SYSTEM    = UTC
MEAN_ELEMENT_THEORY = SGP/SGP4

EPOCH          = 2025-12-04T00:00:02.000160
MEAN_MOTION    = 15.82225759
ECCENTRICITY   = .0000819
INCLINATION    = 53.1560
RA_OF_ASC_NODE = 230.0843
ARG_OF_PERICENTER = 74.7905
MEAN_ANOMALY   = 30.3430

EPHEMERIS_TYPE = 0
CLASSIFICATION_TYPE = U
NORAD_CAT_ID   = 66638
ELEMENT_SET_NO = 999
REV_AT_EPOCH   = 284
BSTAR          = -.90969E-2
MEAN_MOTION_DOT = -.1662822E-1
MEAN_MOTION_DDOT = 0

CCSDS_OMM_VERS = 2.0
CREATION_DATE  = 
ORIGINATOR     = 

OBJECT_NAME    = STARLINK-35908
OBJECT_ID      = 2025-271Y
CENTER_NAME    = EARTH
REF_FRAME      = TEME
TIME_SYSTEM    = UTC
MEAN_ELEMENT_THEORY = SGP/SGP4

EPOCH          = 2025-12-04T02:34:25.508352
MEAN_MOTION    = 15.84226755
ECCENTRICITY   = .0009705
INCLINATION    = 53.1556
RA_OF_ASC_NODE = 229.5366
ARG_OF_PERICENTER = 335.6046
MEAN_ANOMALY   = 24.4517

EPHEMERIS_TYPE = 0
CLASSIFICATION_TYPE = U
NORAD_CAT_ID   = 66639
ELEMENT_SET_NO = 999
REV_AT_EPOCH   = 285
BSTAR          = .30756E-2
MEAN_MOTION_DOT = .777445E-2
MEAN_MOTION_DDOT = 0

CCSDS_OMM_VERS = 2.0
CREATION_DATE  = 
ORIGINATOR     = 

OBJECT_NAME    = STARLINK-35921
OBJECT_ID      = 2025-271Z
CENTER_NAME    = EARTH
REF_FRAME      = TEME
TIME_SYSTEM    = UTC
MEAN_ELEMENT_THEORY = SGP/SGP4

EPOCH          = 2025-12-04T04:05:22.966080
MEAN_MOTION    = 15.83083282
ECCENTRICITY   = .0005783
INCLINATION    = 53.1560
RA_OF_ASC_NODE = 229.2192
ARG_OF_PERICENTER = 302.4841
MEAN_ANOMALY   = 57.5623

EPHEMERIS_TYPE = 0
CLASSIFICATION_TYPE = U
NORAD_CAT_ID   = 66640
ELEMENT_SET_NO = 999
REV_AT_EPOCH   = 286
BSTAR          = .28085E-2
MEAN_MOTION_DOT = .662983E-2
MEAN_MOTION_DDOT = 0

CCSDS_OMM_VERS = 2.0
CREATION_DATE  = 
ORIGINATOR     = 

OBJECT_NAME    = STARLINK-35923
OBJECT_ID      = 2025-271AA
CENTER_NAME    = EARTH
REF_FRAME      = TEME
TIME_SYSTEM    = UTC
MEAN_ELEMENT_THEORY = SGP/SGP4

EPOCH          = 2025-12-04T04:02:26.143296
MEAN_MOTION    = 15.81718152
ECCENTRICITY   = .0001194
INCLINATION    = 53.1554
RA_OF_ASC_NODE = 229.2043
ARG_OF_PERICENTER = 158.0841
MEAN_ANOMALY   = 202.0234

EPHEMERIS_TYPE = 0
CLASSIFICATION_TYPE = U
NORAD_CAT_ID   = 66641
ELEMENT_SET_NO = 999
REV_AT_EPOCH   = 286
BSTAR          = -.43987E-2
MEAN_MOTION_DOT = -.822461E-2
MEAN_MOTION_DDOT = 0

CCSDS_OMM_VERS = 2.0
CREATION_DATE  = 
ORIGINATOR     = 

OBJECT_NAME    = STARLINK-35926
OBJECT_ID      = 2025-271AB
CENTER_NAME    = EARTH
REF_FRAME      = TEME
TIME_SYSTEM    = UTC
MEAN_ELEMENT_THEORY = SGP/SGP4

EPOCH          = 2025-12-04T04:02:59.481600
MEAN_MOTION    = 15.81717760
ECCENTRICITY   = .0000772
INCLINATION    = 53.1557
RA_OF_ASC_NODE = 229.2075
ARG_OF_PERICENTER = 174.0832
MEAN_ANOMALY   = 186.0201

EPHEMERIS_TYPE = 0
CLASSIFICATION_TYPE = U
NORAD_CAT_ID   = 66642
ELEMENT_SET_NO = 999
REV_AT_EPOCH   = 282
BSTAR          = -.43016E-2
MEAN_MOTION_DOT = -.80574E-2
MEAN_MOTION_DDOT = 0

CCSDS_OMM_VERS = 2.0
CREATION_DATE  = 
ORIGINATOR     = 

OBJECT_NAME    = STARLINK-35918
OBJECT_ID      = 2025-271AC
CENTER_NAME    = EARTH
REF_FRAME      = TEME
TIME_SYSTEM    = UTC
MEAN_ELEMENT_THEORY = SGP/SGP4

EPOCH          = 2025-12-04T04:04:03.427968
MEAN_MOTION    = 15.81721981
ECCENTRICITY   = .0000859
INCLINATION    = 53.1559
RA_OF_ASC_NODE = 229.2128
ARG_OF_PERICENTER = 153.2014
MEAN_ANOMALY   = 206.9054

EPHEMERIS_TYPE = 0
CLASSIFICATION_TYPE = U
NORAD_CAT_ID   = 66643
ELEMENT_SET_NO = 999
REV_AT_EPOCH   = 286
BSTAR          = -.42278E-2
MEAN_MOTION_DOT = -.793257E-2
MEAN_MOTION_DDOT = 0

CCSDS_OMM_VERS = 2.0
CREATION_DATE  = 
ORIGINATOR     = 

OBJECT_NAME    = STARLINK-35938
OBJECT_ID      = 2025-271AD
CENTER_NAME    = EARTH
REF_FRAME      = TEME
TIME_SYSTEM    = UTC
MEAN_ELEMENT_THEORY = SGP/SGP4

EPOCH          = 2025-12-04T02:32:31.627968
MEAN_MOTION    = 15.82000303
ECCENTRICITY   = .0001645
INCLINATION    = 53.1559
RA_OF_ASC_NODE = 229.5273
ARG_OF_PERICENTER = 20.9453
MEAN_ANOMALY   = 339.1638

EPHEMERIS_TYPE = 0
CLASSIFICATION_TYPE = U
NORAD_CAT_ID   = 66644
ELEMENT_SET_NO = 999
REV_AT_EPOCH   = 285
BSTAR          = -.31088E-2
MEAN_MOTION_DOT = -.604274E-2
MEAN_MOTION_DDOT = 0

CCSDS_OMM_VERS = 2.0
CREATION_DATE  = 
ORIGINATOR     = 

OBJECT_NAME    = SHENZHOU-22
OBJECT_ID      = 2025-272A
CENTER_NAME    = EARTH
REF_FRAME      = TEME
TIME_SYSTEM    = UTC
MEAN_ELEMENT_THEORY = SGP/SGP4

EPOCH          = 2025-12-03T17:53:39.447744
MEAN_MOTION    = 15.58598848
ECCENTRICITY   = .00100687
INCLINATION    = 41.4679
RA_OF_ASC_NODE = 71.2873
ARG_OF_PERICENTER = 322.1315
MEAN_ANOMALY   = 37.8814

EPHEMERIS_TYPE = 0
CLASSIFICATION_TYPE = U
NORAD_CAT_ID   = 66645
ELEMENT_SET_NO = 999
REV_AT_EPOCH   = 26263
BSTAR          = .35132982E-3
MEAN_MOTION_DOT = .27527E-3
MEAN_MOTION_DDOT = 0

CCSDS_OMM_VERS = 2.0
CREATION_DATE  = 
ORIGINATOR     = 

OBJECT_NAME    = CZ-2F R/B
OBJECT_ID      = 2025-272B
CENTER_NAME    = EARTH
REF_FRAME      = TEME
TIME_SYSTEM    = UTC
MEAN_ELEMENT_THEORY = SGP/SGP4

EPOCH          = 2025-11-26T11:17:54.506400
MEAN_MOTION    = 16.01945612
ECCENTRICITY   = .01210796
INCLINATION    = 41.4431
RA_OF_ASC_NODE = 114.9009
ARG_OF_PERICENTER = 133.7676
MEAN_ANOMALY   = 227.3272

EPHEMERIS_TYPE = 0
CLASSIFICATION_TYPE = U
NORAD_CAT_ID   = 66646
ELEMENT_SET_NO = 999
REV_AT_EPOCH   = 21
BSTAR          = .29319366E-3
MEAN_MOTION_DOT = .449059E-2
MEAN_MOTION_DDOT = .7567612E-5

