STARLINK-35955          
1 66635U 25271U   25337.91670139 -.01670516  00000+0 -90007-2 0  9994
2 66635  53.1560 230.5156 0000609  78.5294 265.2125 15.82564749  2826
STARLINK-35968          
1 66636U 25271V   25338.17189028  .00023692  00000+0  11527-3 0  9991
2 66636  53.1560 229.2300 0004627 358.4945   1.6064 15.82318773  2862
STARLINK-35953          
1 66637U 25271W   25338.17148149  .00274449  00000+0  12703-2 0  9995
2 66637  53.1563 229.2272 0002078 316.5202  43.5657 15.82192647  2866
STARLINK-35972          
1 66638U 25271X   25338.00002315 -.01662822  00000+0 -90969-2 0  9991
2 66638  53.1560 230.0843 0000819  74.7905  30.3430 15.82225759  2844
STARLINK-35908          
1 66639U 25271Y   25338.10723968  .00777445  00000+0  30756-2 0  9990
2 66639  53.1556 229.5366 0009705 335.6046  24.4517 15.84226755  2851
STARLINK-35921          
1 66640U 25271Z   25338.17040470  .00662983  00000+0  28085-2 0  9991
2 66640  53.1560 229.2192 0005783 302.4841  57.5623 15.83083282  2860
STARLINK-35923          
1 66641U 25271AA  25338.16835814 -.00822461  00000+0 -43987-2 0  9994
2 66641  53.1554 229.2043 0001194 158.0841 202.0234 15.81718152  2860
STARLINK-35926          
1 66642U 25271AB  25338.16874400 -.00805740  00000+0 -43016-2 0  9993
2 66642  53.1557 229.2075 0000772 174.0832 186.0201 15.81717760  2823
STARLINK-35918          
1 66643U 25271AC  25338.16948412 -.00793257  00000+0 -42278-2 0  9997
2 66643  53.1559 229.2128 0000859 153.2014 206.9054 15.81721981  2864
STARLINK-35938          
1 66644U 25271AD  25338.10592162 -.00604274  00000+0 -31088-2 0  9996
2 66644  53.1559 229.5273 0001645  20.9453 339.1638 15.82000303  2855
SHENZHOU-22             
1 66645U 25272A   25337.74559546  .00027527  00000+0  35133-3 0  9990
2 66645  41.4679  71.2873 0010068 322.1315  37.8814 15.58598848262631
CZ-2F R/B               
1 66646U 25272B   25330.47076975  .00449059  75676-5  29319-3 0  9998
2 66646  41.4431 114.9009 0121079 133.7676 227.3272 16.01945612   217
